KUIPER-00074            
1 64821U 25151F   25365.36308363  .00006577  00000+0  88964-3 0  9990
2 64821  51.9019 232.7312 0013941  48.5512 311.6645 14.79948104 25326
KUIPER-00075            
1 64822U 25151G   25365.53015211  .00070862  00000+0  17430-2 0  9994
2 64822  51.8716 192.9377 0003550  45.1943 314.9333 15.39969483 25896
KUIPER-00076            
1 64823U 25151H   25365.36036971  .00006507  00000+0  88219-3 0  9991
2 64823  51.9005 235.2363 0005464  50.0925 310.0517 14.79906862 25296
KUIPER-00077            
1 64824U 25151J   25365.35500025  .00006755  00000+0  91488-3 0  9994
2 64824  51.9007 240.2677 0006227  16.4160 343.7003 14.79894278 25221
KUIPER-00078            
1 64825U 25151K   25365.39148978  .00008617  00000+0  11569-2 0  9994
2 64825  51.8989 237.5992 0008870  67.2003 292.9896 14.79952549 25260
KUIPER-00079            
1 64826U 25151L   25365.35222780  .00005795  00000+0  78785-3 0  9993
2 64826  51.8976 242.7579 0012079  18.6774 341.4630 14.79941229 26380
KUIPER-00080            
1 64827U 25151M   25365.38606036  .00007302  00000+0  98509-3 0  9999
2 64827  51.8987 242.6126 0006407  39.7391 320.4039 14.79959029 25192
KUIPER-00082            
1 64828U 25151N   25365.36583705  .00021419  00000+0  28307-2 0  9998
2 64828  51.9005 230.2210 0005494  68.0488 292.1057 14.79909462 25369
KUIPER-00083            
1 64829U 25151P   25365.35767713  .00007405  00000+0  99903-3 0  9991
2 64829  51.9006 237.7493 0011245  21.7809 338.3630 14.79916378 26444
KUIPER-00084            
1 64830U 25151Q   25364.87413084  .00033708  00000+0  44279-2 0  9998
2 64830  51.9017 249.8699 0009538 352.8804   7.2022 14.79910988 25048
KUIPER-00085            
1 64831U 25151R   25365.33204788  .00006042  00000+0  82156-3 0  9998
2 64831  51.9022 230.3871 0008028  40.3697 319.7860 14.79888566 25355
KUIPER-00086            
1 64832U 25151S   25365.38871909  .00006956  00000+0  94018-3 0  9993
2 64832  51.9003 240.1196 0011081  18.2727 341.8631 14.79921239 25228
KUIPER-00087            
1 64833U 25151T   25365.34004029 -.00004072  00000+0 -50552-3 0  9995
2 64833  51.8984 222.8242 0000928  74.7611 285.3454 14.79925084 25454
KUIPER-00089            
1 64834U 25151U   25365.33477917  .00024812  00000+0  32723-2 0  9996
2 64834  51.8992 227.8540 0002311 104.1721 255.9499 14.79923314 25397
KUIPER-00090            
1 64835U 25151V   25365.30383508  .00005080  00000+0  75044-3 0  9996
2 64835  51.8971 220.1339 0004403 119.3622 240.7779 14.76631932 25492
KUIPER-00091            
1 64836U 25151W   25365.33738670  .00004863  00000+0  66604-3 0  9994
2 64836  51.9002 225.3471 0008649  71.7117 288.4786 14.79950153 25421
KUIPER-00092            
1 64837U 25151X   25365.32936088  .00016233  00000+0  21523-2 0  9991
2 64837  51.8982 232.8824 0003368  60.3806 299.7491 14.79948917 26531
KUIPER-00093            
1 64838U 25151Y   25365.05643530  .00007868  00000+0  10594-2 0  9999
2 64838  51.8999 236.5735 0003330  74.2154 285.9175 14.79956260 25244
KUIPER-00094            
1 64839U 25151Z   25365.31788765  .00010306  00000+0  73497-3 0  9992
2 64839  51.8881 216.8799 0004489  54.3121 305.8269 15.05064732 25548
KUIPER-00081            
1 65132U 25171A   25365.50002315 -.00026836  00000+0 -31881-2 0  9999
2 65132  51.8989  89.7332 0000917  42.6689 162.2929 14.83867755  5812
KUIPER-00088            
1 65133U 25171B   25365.48411297  .00006756  00000+0  98328-3 0  9997
2 65133  51.8999 107.7379 0007678 253.1409 106.8710 14.76809234 22682
KUIPER-00095            
1 65134U 25171C   25365.47872350  .00012188  00000+0  10963-2 0  9992
2 65134  51.8921  90.4501 0004403 258.4106 101.6369 14.95978110 22929
KUIPER-00096            
1 65135U 25171D   25365.47218257  .00010528  00000+0  14074-2 0  9996
2 65135  51.8998  99.7424 0009983 284.9648  75.0209 14.79923488 22795
KUIPER-00097            
1 65136U 25171E   25365.26694551  .00018251  00000+0  24138-2 0  9992
2 65136  51.9013 103.2662 0009751 283.8835  76.1042 14.79952787 22712
KUIPER-00098            
1 65137U 25171F   25365.46668312  .00009621  00000+0  12873-2 0  9995
2 65137  51.9008 104.7682 0006892 269.6294  90.3878 14.79987208 22068
KUIPER-00099            
1 65138U 25171G   25365.44377091  .00003509  00000+0  48879-3 0  9990
2 65138  51.9041  94.8384 0000427  60.2988 299.8017 14.79957513 22851
KUIPER-00100            
1 65139U 25171H   25365.50002315 -.00033760  00000+0 -45742-2 0  9991
2 65139  51.9006  91.9819 0002764 259.9503 255.8679 14.78503817  4916
KUIPER-00102            
1 65140U 25171J   25365.47757094  .00009383  00000+0  12569-2 0  9993
2 65140  51.8984  94.7218 0000737 106.8415 253.2629 14.79970817 22855
KUIPER-00103            
1 65141U 25171K   25365.49244257 -.00000341  00000+0 -15563-4 0  9994
2 65141  51.8993 112.1468 0005388 268.6365  91.3980 14.79942483 22619
KUIPER-00104            
1 65142U 25171L   25365.51175441  .00007921  00000+0  11521-2 0  9993
2 65142  51.9024  98.8677 0004051 319.0960  40.9697 14.76647982 22805
KUIPER-00105            
1 65143U 25171M   25365.46400098  .00009680  00000+0  12950-2 0  9998
2 65143  51.8988 107.3428 0011846 239.0258 120.9540 14.79959492 22682
KUIPER-00106            
1 65144U 25171N   25365.48438840  .00012946  00000+0  11404-2 0  9999
2 65144  51.8945 104.8168 0008617 232.6181 127.4004 14.96727586 22723
KUIPER-00107            
1 65145U 25171P   25365.50002315 -.00031745  00000+0 -39770-2 0  9993
2 65145  51.8999  89.6541 0002011  41.2568  33.5780 14.81754775  3128
KUIPER-00108            
1 65146U 25171Q   25365.50237991  .00007258  00000+0  97630-3 0  9994
2 65146  51.9025 102.1083 0008059 247.6771 112.3337 14.80084917 22766
KUIPER-00109            
1 65147U 25171R   25365.47480627  .00001790  00000+0  26366-3 0  9990
2 65147  51.9020  97.1800 0011429 262.5064  97.4600 14.79954611 22826
KUIPER-00110            
1 65148U 25171S   25365.49520674  .00009737  00000+0  13034-2 0  9996
2 65148  51.9009 109.6930 0002147 289.2597  70.8133 14.79965208 22641
KUIPER-00111            
1 65149U 25171T   25365.32086630  .00007775  00000+0  10470-2 0  9999
2 65149  51.8975 115.3896 0008078 249.9123 110.0970 14.79951396 22554
KUIPER-00112            
1 65150U 25171U   25365.50859933 -.00011936  00000+0 -15393-2 0  9990
2 65150  51.9025  97.0890 0008166 293.0159  66.9942 14.79906048 22822
KUIPER-00114            
1 65151U 25171V   25365.31817865  .00008793  00000+0  11812-2 0  9995
2 65151  51.8998 117.9423 0005696 234.8429 125.2001 14.79916752 22517
KUIPER-00115            
1 65152U 25171W   25365.46135433  .00006549  00000+0  88641-3 0  9998
2 65152  51.9024 109.7924 0008939 259.5801 100.4154 14.79958535 22648
KUIPER-00116            
1 65153U 25171X   25365.48972911  .00006988  00000+0  94370-3 0  9994
2 65153  51.8995 114.7075 0009740 222.1413 137.8801 14.79956876 22575
KUIPER-00118            
1 65154U 25171Y   25365.48705008 -.00001220  00000+0 -13100-3 0  9994
2 65154  51.8975 117.1726 0000954 174.3738 185.7236 14.79939371 22542
KUIPER-00119            
1 65155U 25171Z   25365.50058390  .00009148  00000+0  12278-2 0  9992
2 65155  51.9006 104.6999 0007504 256.1840 103.8288 14.79907150 22710
KUIPER-00120            
1 65762U 25217A   25365.50002315  .00006110  00000+0  89821-3 0  9998
2 65762  51.8991 353.4835 0003360  75.4470 324.5184 14.76536830  5130
KUIPER-00132            
1 65763U 25217B   25365.29065134  .00058364  00000+0  15409-2 0  9991
2 65763  51.8636 334.9894 0008065  81.7631 278.4271 15.37864861 14895
KUIPER-00133            
1 65764U 25217C   25365.23093044  .00003867  00000+0  53555-3 0  9990
2 65764  51.9040 355.8233 0011781  91.8936 268.3376 14.79949727 14607
KUIPER-00139            
1 65765U 25217D   25365.17938054  .00016480  00000+0  12609-2 0  9992
2 65765  51.8866 347.5306 0008890  83.4981 276.7003 15.01980735 14718
KUIPER-00142            
1 65766U 25217E   25365.50002315 -.00994133  00000+0 -90664-1 0  9990
2 65766  51.9145 337.9766 0003033 102.9819 239.8812 14.97550644  5213
KUIPER-00145            
1 65767U 25217F   25365.50002315 -.00944812  00000+0 -10454+0 0  9997
2 65767  51.8978 340.0489 0007681  76.6501 178.9400 14.89790110  4560
KUIPER-00147            
1 65768U 25217G   25365.50002315 -.00026794  00000+0 -28303-2 0  9993
2 65768  51.8969 342.5067 0011386  87.4247  19.7786 14.88590839  3859
KUIPER-00148            
1 65769U 25217H   25365.41595775  .00028390  00000+0  17913-2 0  9998
2 65769  51.8789 340.9917 0010344 107.8926 252.3177 15.08842779 14824
KUIPER-00150            
1 65770U 25217J   25365.16604936  .00003974  00000+0  54989-3 0  9998
2 65770  51.9041 353.6091 0000347 121.4647 238.6349 14.79942826 14623
KUIPER-00151            
1 65771U 25217K   25365.50002315 -.00014628  00000+0 -18448-2 0  9999
2 65771  51.9016 344.6440 0000901 168.2570 122.1048 14.81027770  5734
KUIPER-00152            
1 65772U 25217L   25365.50002315  .00009561  00000+0  53419-3 0  9996
2 65772  51.8877 334.8028 0002664  89.7245   5.8852 15.14121395  5438
KUIPER-00153            
1 65773U 25217M   25365.34527807  .00024824  00000+0  14515-2 0  9999
2 65773  51.8786 345.6616 0013506  87.2579 272.9943 15.11655266 14750
KUIPER-00155            
1 65774U 25217N   25365.50002315  .00038041  00000+0  11942-2 0  9997
2 65774  51.8675 334.0354 0008424  89.7149 338.0749 15.32623276  4433
KUIPER-00156            
1 65775U 25217P   25365.50002315 -.00335224  00000+0 -12184-1 0  9991
2 65775  51.8747 333.2865 0002645 105.6537 328.6769 15.29192393  5761
KUIPER-00158            
1 65776U 25217Q   25365.27282088  .00003154  00000+0  44243-3 0  9998
2 65776  51.8993 348.1337 0001004  43.7787 316.3254 14.79942119 14712
KUIPER-00163            
1 65777U 25217R   25365.50002315  .00017593  00000+0  23342-2 0  9996
2 65777  51.8977 349.6322 0000683  99.1891  46.7711 14.79869503  4703
